ALOS-2                  
1 39766U 14029A   26069.53039536  .00001001  00000+0  14078-3 0  9998
2 39766  97.9189 168.1152 0001388  97.1905 262.9464 14.79506610636996
YAOGAN-29               
1 41038U 15069A   26069.53667193  .00000270  00000+0  39900-4 0  9993
2 41038  98.0143  97.9686 0001878  34.3493 325.7841 14.82996161556001
ASTRO-H (HITOMI)        
1 41337U 16012A   26068.96461467  .00004267  00000+0  25031-3 0  9995
2 41337  31.0008 354.7735 0009847 333.7785  26.2354 15.10008525552270
HXMT (HUIYAN)           
1 42758U 17034A   26069.30421669  .00008545  00000+0  42437-3 0  9999
2 42758  43.0157  13.2567 0032979 239.7303 120.0280 15.17476255482638
SAOCOM 1A               
1 43641U 18076A   26068.96299391  .00001305  00000+0  17043-3 0  9996
2 43641  97.8895 257.1316 0001339  83.6952 276.4413 14.82173643401405
H-2A R/B                
1 43682U 18084L   26069.51186151  .00023799  00000+0  56488-3 0  9998
2 43682  98.8729 287.0753 0025402  22.4975 337.7375 15.41387629405901
CSS (TIANHE)            
1 48274U 21035A   26069.48347082  .00028564  00000+0  33669-3 0  9999
2 48274  41.4662 203.3317 0006956 277.6291  82.3758 15.60703934277736
COSMOS 2550             
1 48865U 21056A   26067.47400841 -.00000192  00000+0 -13338-7 0  9992
2 48865  67.1451  44.6088 0008369 269.6014  90.4182 15.33829151263273
CZ-2C R/B               
1 52794U 22058K   26069.09097593  .00039191  00000+0  57033-3 0  9992
2 52794  50.1894 316.2255 0042149 202.5748 157.3370 15.54266256210199
CZ-2C R/B               
1 54039U 22132E   26069.52488912  .00044069  00000+0  50113-3 0  9998
2 54039  97.2967  72.8671 0020627  88.6324 271.7296 15.61920631190505
GSLV R/B                
1 54149U 22138AN  26069.32252360  .00004007  00000+0  34611-3 0  9993
2 54149  87.3874 166.1505 0023046 144.6084 215.6683 14.96780192184021
